#aV2006  1 19  0  0   .00000000      96 DD+AD WGS84 FIT  NGA
## 1358 345600.00000000   900.00000000 53754  .0000000000000
+   29     1  2  3  4  5  6  7  8  9 10 11 13 14 15 16 17 18
+         19 20 21 22 23 24 25 26 27 28 29 30  0  0  0  0  0
+          0  0  0  0  0  0  0  0  0  0  0  0  0  0  0  0  0
+          0  0  0  0  0  0  0  0  0  0  0  0  0  0  0  0  0
+          0  0  0  0  0  0  0  0  0  0  0  0  0  0  0  0  0
++         0  0  0  0  0  0  0  0  0  0  0  0  0  0  0  0  0
++         0  0  0  0  0  0  0  0  0  0  0  0  0  0  0  0  0
++         0  0  0  0  0  0  0  0  0  0  0  0  0  0  0  0  0
++         0  0  0  0  0  0  0  0  0  0  0  0  0  0  0  0  0
++         0  0  0  0  0  0  0  0  0  0  0  0  0  0  0  0  0
%c cc cc ccc ccc cccc cccc cccc cccc ccccc ccccc ccccc ccccc
%c cc cc ccc ccc cccc cccc cccc cccc ccccc ccccc ccccc ccccc
%f  0.0000000  0.000000000  0.00000000000  0.000000000000000
%f  0.0000000  0.000000000  0.00000000000  0.000000000000000
%i    0    0    0    0      0      0      0      0         0
%i    0    0    0    0      0      0      0      0         0
/*      NGA, ST. LOUIS,MO.                                  
/*   EPHEMERIS COMPUTED FROM  3 DAYS OF DATA                
/* CCCCCCCCCCCCCCCCCCCCCCCCCCCCCCCCCCCCCCCCCCCCCCCCCCCCCCCCC
/* CCCCCCCCCCCCCCCCCCCCCCCCCCCCCCCCCCCCCCCCCCCCCCCCCCCCCCCCC
*  2006  1 19 19 15   .00000000                                                 
P  1  -3937.321072  15887.061493  21107.709872     32.231438                    
V  1 -25250.792824   7312.579822 -10353.966662       .020982                    
P  2  -8219.053667 -20555.101793  14522.970348    -21.495861                    
V  2  15851.124454  10492.023265  23214.872420       .011970                    
P  3   3495.746300  15881.422113 -21131.077702     67.921370                    
V  3 -24472.374224  10544.955763   4206.935940       .030589                    
P  4   3858.927492 -16187.785712  20594.940090    123.334957                    
V  4  20463.644105  16613.318485   9560.590538       .118117                    
P  5 -14117.681515  -9142.930854  20396.644263    479.885099                    
V  5   3628.248714 -26151.942802  -8959.742812       .150829                    
P  6 -25463.133012   5716.214515   5355.094595    239.935129                    
V  6   4858.734056  -5628.454876  30096.559230       .404193                    
P  7  13640.720287 -17623.617018  14799.838929    475.435418                    
V  7  17786.067658  -4702.021140 -22716.131986       .094589                    
P  8  11582.923242  -9746.422953 -21991.825945    -54.035927                    
V  8  20229.209672  18641.944245   2018.377877      -.012022                    
P  9 -21681.223824 -15433.974335   1850.130689      4.232830                    
V  9   -693.272466  -3919.863002 -31412.977034       .015709                    
P 10  -3447.410088 -23369.137084 -11900.757077     77.366910                    
V 10   5157.494314 -14333.833095  27139.241191       .005881                    
P 11  23388.145680  12630.521731   2370.545574    300.447118                    
V 11    187.272507   5462.890363 -29970.306071       .029507                    
P 13  25564.756142  -6295.671157   3173.055885     36.047494                    
V 13  -3303.655715   3107.420924  32105.327743       .023123                    
P 14 -17438.453406  15210.390807  13064.919327    -20.769553                    
V 14 -16095.896579   3795.848500 -26086.559324       .006034                    
P 15 -12750.473204   8865.382109 -21743.051596    552.470925                    
V 15 -19231.813461 -19212.511253   3106.123785       .059528                    
P 16  -1732.751122  26045.869808  -4565.726955     22.563792                    
V 16  -3858.810083   5281.566791  31134.021331       .016464                    
P 17  18661.314743 -15069.744351  11295.492658     31.464133                    
V 17  14411.279550  -2498.030633 -27157.720220       .093539                    
P 18 -15807.589161   9221.903633 -19048.977796   -215.812600                    
V 18   3970.041732 -24216.644313 -15228.435208      -.022626                    
P 19  16324.150490   9028.875809 -18822.052201    -23.387395                    
V 19 -22734.982886   8132.189662 -15700.477344       .007227                    
P 20  13592.036665   8378.775757  21145.843795    -34.842151                    
V 20  -5272.045083  26533.422478  -7068.819147       .009867                    
P 21 -19216.776536    461.055738 -18495.082382     -2.409247                    
V 21 -16257.471866 -16949.129252  15931.259878       .036599                    
P 22 -12153.121547  21446.887244  -9732.421318     62.897766                    
V 22    325.065864 -12868.612440 -28294.686256       .025177                    
P 23  22585.868592   2055.568383  13858.067118    153.877856                    
V 23 -15976.834896   7806.358770  24575.709382      -.016028                    
P 24  16140.559952  -4763.982800  20846.459276     78.695649                    
V 24  18313.445332  18270.085790  -9885.704892       .029860                    
P 25   1035.665266  18014.173996  19858.487824   -236.567451                    
V 25 -20681.026279 -13030.722289  13267.798493      -.850234                    
P 26 -12052.288700 -10911.369872 -21488.083735    -19.201215                    
V 26  24834.193520  -8454.567298  -9228.794296      -.078648                    
P 27  19228.221722  -1274.888719 -17847.787560     32.210825                    
V 27  18017.886661  15540.823619  17361.836593       .016646                    
P 28  12839.781067 -19160.536575 -12592.653716     34.863918                    
V 28   -680.844560  16742.560859 -25976.912322      -.006645                    
P 29  -7361.429241 -12740.657642 -21875.954500    504.503197                    
V 29  26510.997838  -9891.574508  -2889.184565       .136276                    
P 30 -15702.002332   2237.537318  21015.774513     17.350990                    
V 30   3351.094349 -27206.901529   5444.526177       .043652                    
EOF
